NORAD_CAT_ID,OBJECT_NAME,OBJECT_TYPE,EPOCH,MEAN_MOTION,ECCENTRICITY,INCLINATION,RA_OF_ASC_NODE,ARG_OF_PERICENTER,MEAN_ANOMALY,BSTAR,MEAN_MOTION_DOT,MEAN_MOTION_DDOT,TLE_LINE0,TLE_LINE1,TLE_LINE2,SEMIMAJOR_AXIS,PERIOD,APOGEE,PERIGEE,DECAYED
55401.0,STARLINK-5076,PAYLOAD,2024-07-18 19:56:00,14.9832211,0.000323,69.9995,134.3315,274.3741,85.7049,-9.8911e-05,-1.273e-05,0.0,0 STARLINK-5076,1 55401U 23014L   24200.83055892 -.00001273  00000-0 -98911-4 0  9990,2 55401  69.9995 134.3315 0003230 274.3741  85.7049 14.98322110 81418,6950.217,96.108,574.327,569.837,0.0
55401.0,STARLINK-5076,PAYLOAD,2024-07-18 21:32:08,14.98323533,0.0003088,69.9997,134.1627,271.7841,88.2965,-6.3702e-05,-8.53e-06,0.0,0 STARLINK-5076,1 55401U 23014L   24200.89731741 -.00000853  00000-0 -63702-4 0  9993,2 55401  69.9997 134.1627 0003088 271.7841  88.2965 14.98323533 82367,6950.213,96.107,574.224,569.932,0.0
55401.0,STARLINK-5076,PAYLOAD,2024-07-19 03:56:39,14.98335768,0.000292,70.0,133.4892,269.3666,90.7158,3.3002e-05,3.01e-06,0.0,0 STARLINK-5076,1 55401U 23014L   24201.16434832  .00000301  00000-0  33002-4 0  9991,2 55401  70.0000 133.4892 0002920 269.3666  90.7158 14.98335768 81468,6950.175,96.107,574.07,570.011,0.0
55401.0,STARLINK-5076,PAYLOAD,2024-07-19 05:32:47,14.98337865,0.0002917,70.0002,133.3215,269.6627,90.4198,5.879e-05,6.09e-06,0.0,0 STARLINK-5076,1 55401U 23014L   24201.23110636  .00000609  00000-0  58790-4 0  9994,2 55401  70.0002 133.3215 0002917 269.6627  90.4198 14.98337865 82411,6950.169,96.106,574.061,570.006,0.0
55401.0,STARLINK-5076,PAYLOAD,2024-07-19 21:34:08,14.98329624,0.0002908,70.0,131.6382,273.2873,86.7953,0.00022189,2.555e-05,0.0,0 STARLINK-5076,1 55401U 23014L   24201.89870713  .00002555  00000-0  22189-3 0  9999,2 55401  70.0000 131.6382 0002908 273.2873  86.7953 14.98329624 82511,6950.194,96.107,574.08,570.038,0.0
55401.0,STARLINK-5076,PAYLOAD,2024-07-20 03:58:40,14.98335175,0.0002758,70.0004,130.9652,274.567,85.5174,0.00039894,4.671e-05,0.0,0 STARLINK-5076,1 55401U 23014L   24202.16574238  .00004671  00000-0  39894-3 0  9995,2 55401  70.0004 130.9652 0002758 274.5670  85.5174 14.98335175 81619,6950.177,96.107,573.959,570.125,0.0
55401.0,STARLINK-5076,PAYLOAD,2024-07-20 05:34:49,14.98308624,0.0002546,70.0005,130.7969,275.4479,84.6389,0.0010672,0.00012656,0.0,0 STARLINK-5076,1 55401U 23014L   24202.23251290  .00012656  00000-0  10672-2 0  9997,2 55401  70.0005 130.7969 0002546 275.4479  84.6389 14.98308624 81629,6950.259,96.108,573.894,570.354,0.0
55401.0,STARLINK-5076,PAYLOAD,2024-07-20 20:00:01,14.98333023,0.0002452,70.0023,129.2859,268.0182,92.0697,0.00018294,2.091e-05,0.0,0 STARLINK-5076,1 55401U 23014L   24202.83334991  .00002091  00000-0  18294-3 0  9994,2 55401  70.0023 129.2859 0002452 268.0182  92.0697 14.98333023 81711,6950.184,96.107,573.753,570.344,0.0
55401.0,STARLINK-5076,PAYLOAD,2024-07-20 21:36:09,14.98332303,0.0002448,70.0021,129.1176,267.4194,92.6684,0.0001538,1.743e-05,0.0,0 STARLINK-5076,1 55401U 23014L   24202.90011019  .00001743  00000-0  15380-3 0  9991,2 55401  70.0021 129.1176 0002448 267.4194  92.6684 14.98332303 82668,6950.186,96.107,573.752,570.349,0.0
55401.0,STARLINK-5076,PAYLOAD,2024-07-21 05:36:49,14.983426,0.0002349,70.0014,128.2745,260.9841,99.1052,-0.00017843,-2.222e-05,0.0,0 STARLINK-5076,1 55401U 23014L   24203.23390767 -.00002222  00000-0 -17843-3 0  9999,2 55401  70.0014 128.2745 0002349 260.9841  99.1052 14.98342600 82717,6950.154,96.106,573.652,570.386,0.0
55401.0,STARLINK-5076,PAYLOAD,2024-07-21 20:02:02,14.98336616,0.0002896,70.0,126.7574,270.7825,89.3002,-7.0596e-05,-9.35e-06,0.0,0 STARLINK-5076,1 55401U 23014L   24203.83474913 -.00000935  00000-0 -70596-4 0  9995,2 55401  70.0000 126.7574 0002896 270.7825  89.3002 14.98336616 81864,6950.172,96.107,574.05,570.025,0.0
55401.0,STARLINK-5076,PAYLOAD,2024-07-21 21:38:10,14.98336725,0.0002941,69.9999,126.5889,270.667,89.4152,-6.6938e-05,-8.92e-06,0.0,0 STARLINK-5076,1 55401U 23014L   24203.90150860 -.00000892  00000-0 -66938-4 0  9992,2 55401  69.9999 126.5889 0002941 270.6670  89.4152 14.98336725 82817,6950.172,96.107,574.081,569.993,0.0
55401.0,STARLINK-5076,PAYLOAD,2024-07-22 04:02:42,14.98341505,0.0002643,70.001,125.918,258.6761,101.4102,5.169e-06,-3.1e-07,0.0,0 STARLINK-5076,1 55401U 23014L   24204.16854190 -.00000031  00000-0  51690-5 0  9992,2 55401  70.0010 125.9180 0002643 258.6761 101.4102 14.98341505 81919,6950.157,96.106,573.859,570.185,0.0
55401.0,STARLINK-5076,PAYLOAD,2024-07-22 18:27:54,14.98331441,0.0002477,70.0012,124.4023,258.4147,101.6734,0.00012453,1.393e-05,0.0,0 STARLINK-5076,1 55401U 23014L   24204.76938388  .00001393  00000-0  12453-3 0  9993,2 55401  70.0012 124.4023 0002477 258.4147 101.6734 14.98331441 82004,6950.188,96.107,573.775,570.332,0.0
55401.0,STARLINK-5076,PAYLOAD,2024-07-23 12:05:23,14.98333831,0.0002571,70.0013,122.5504,272.0669,88.0196,0.00012396,1.387e-05,0.0,0 STARLINK-5076,1 55401U 23014L   24205.50374208  .00001387  00000-0  12396-3 0  9990,2 55401  70.0013 122.5504 0002571 272.0669  88.0196 14.98333831 83055,6950.181,96.107,573.833,570.259,0.0
55401.0,STARLINK-5076,PAYLOAD,2024-07-24 04:06:45,14.98321561,0.0002574,70.0012,120.8671,271.0531,89.0333,-7.2812e-05,-9.61e-06,0.0,0 STARLINK-5076,1 55401U 23014L   24206.17135630 -.00000961  00000-0 -72812-4 0  9997,2 55401  70.0012 120.8671 0002574 271.0531  89.0333 14.98321561 82218,6950.219,96.108,573.873,570.295,0.0
55401.0,STARLINK-5076,PAYLOAD,2024-07-24 18:31:56,14.98335935,0.0003721,69.9987,119.3494,269.5977,90.4755,-6.536e-06,-1.71e-06,0.0,0 STARLINK-5076,1 55401U 23014L   24206.77218412 -.00000171  00000-0 -65360-5 0  9997,2 55401  69.9987 119.3494 0003721 269.5977  90.4755 14.98335935 82307,6950.175,96.107,574.626,569.453,0.0
55401.0,STARLINK-5076,PAYLOAD,2024-07-25 04:08:44,14.98348147,0.0003053,70.0003,118.3408,271.136,88.945,0.00017137,1.953e-05,0.0,0 STARLINK-5076,1 55401U 23014L   24207.17273297  .00001953  00000-0  17137-3 0  9998,2 55401  70.0003 118.3408 0003053 271.1360  88.9450 14.98348147 82365,6950.137,96.106,574.124,569.88,0.0
55401.0,STARLINK-5076,PAYLOAD,2024-07-25 21:46:14,14.98321483,0.0002948,70.0007,116.4895,277.1491,82.9333,0.00021688,2.495e-05,0.0,0 STARLINK-5076,1 55401U 23014L   24207.90711059  .00002495  00000-0  21688-3 0  9990,2 55401  70.0007 116.4895 0002948 277.1491  82.9333 14.98321483 83416,6950.219,96.108,574.133,570.035,0.0
55401.0,STARLINK-5076,PAYLOAD,2024-07-26 04:10:46,14.98334033,0.0002893,70.0002,115.8166,274.5558,85.5271,0.00020999,2.414e-05,0.0,0 STARLINK-5076,1 55401U 23014L   24208.17414546  .00002414  00000-0  20999-3 0  9996,2 55401  70.0002 115.8166 0002893 274.5558  85.5271 14.98334033 82514,6950.18,96.107,574.056,570.035,0.0
55401.0,STARLINK-5076,PAYLOAD,2024-07-26 16:59:50,14.98340763,0.0002829,70.0014,114.4704,272.7213,87.3622,8.5449e-05,9.27e-06,0.0,0 STARLINK-5076,1 55401U 23014L   24208.70821940  .00000927  00000-0  85449-4 0  9994,2 55401  70.0014 114.4704 0002829 272.7213  87.3622 14.98340763 83537,6950.16,96.106,573.991,570.058,0.0
55401.0,STARLINK-5076,PAYLOAD,2024-07-27 04:12:45,14.98348817,0.000288,70.001,113.2923,271.1306,88.9523,0.00019469,2.232e-05,0.0,0 STARLINK-5076,1 55401U 23014L   24209.17553152  .00002232  00000-0  19469-3 0  9992,2 55401  70.0010 113.2923 0002880 271.1306  88.9523 14.98348817 82664,6950.135,96.106,574.001,569.998,0.0
55401.0,STARLINK-5076,PAYLOAD,2024-07-27 21:50:15,14.98328656,0.0002726,70.0012,111.4418,252.4427,107.6434,-2.533e-05,-3.95e-06,0.0,0 STARLINK-5076,1 55401U 23014L   24209.90990032 -.00000395  00000-0 -25330-4 0  9990,2 55401  70.0012 111.4418 0002726 252.4427 107.6434 14.98328656 83716,6950.197,96.107,573.957,570.167,0.0
55401.0,STARLINK-5076,PAYLOAD,2024-07-28 02:38:40,14.9832201,0.0002658,70.0014,110.9363,271.5184,88.5671,-0.00014092,-1.774e-05,0.0,0 STARLINK-5076,1 55401U 23014L   24210.11018580 -.00001774  00000-0 -14092-3 0  9998,2 55401  70.0014 110.9363 0002658 271.5184  88.5671 14.98322010 82804,6950.218,96.108,573.93,570.235,0.0
55401.0,STARLINK-5076,PAYLOAD,2024-07-28 20:16:08,14.98335248,0.0002486,70.0009,109.0863,258.6766,101.4114,-5.1361e-05,-7.06e-06,0.0,0 STARLINK-5076,1 55401U 23014L   24210.84454324 -.00000706  00000-0 -51361-4 0  9993,2 55401  70.0009 109.0863 0002486 258.6766 101.4114 14.98335248 82919,6950.177,96.107,573.769,570.314,0.0
55401.0,STARLINK-5076,PAYLOAD,2024-07-28 21:52:16,14.98350257,0.0001909,70.0003,108.9164,271.8838,88.2102,-0.00037071,-4.515e-05,0.0,0 STARLINK-5076,1 55401U 23014L   24210.91129968 -.00004515  00000-0 -37071-3 0  9997,2 55401  70.0003 108.9164 0001909 271.8838  88.2102 14.98350257 83862,6950.13,96.106,573.322,570.668,0.0
55401.0,STARLINK-5076,PAYLOAD,2024-07-29 10:41:21,14.98325933,0.0002746,70.0001,107.5694,270.8376,89.2469,0.00014484,1.635e-05,0.0,0 STARLINK-5076,1 55401U 23014L   24211.44538418  .00001635  00000-0  14484-3 0  9991,2 55401  70.0001 107.5694 0002746 270.8376  89.2469 14.98325933 83948,6950.205,96.107,573.979,570.162,0.0
55401.0,STARLINK-5076,PAYLOAD,2024-07-29 20:18:09,14.9833029,0.0002805,69.9999,106.5591,270.2636,89.8202,0.00016526,1.879e-05,0.0,0 STARLINK-5076,1 55401U 23014L   24211.84594242  .00001879  00000-0  16526-3 0  9991,2 55401  69.9999 106.5591 0002805 270.2636  89.8202 14.98330290 83061,6950.192,96.107,574.007,570.107,0.0
55401.0,STARLINK-5076,PAYLOAD,2024-07-29 21:54:17,14.98330493,0.0002809,69.9999,106.3908,270.2285,89.8552,0.00016698,1.9e-05,0.0,0 STARLINK-5076,1 55401U 23014L   24211.91270249  .00001900  00000-0  16698-3 0  9992,2 55401  69.9999 106.3908 0002809 270.2285  89.8552 14.98330493 84014,6950.191,96.107,574.009,570.104,0.0
55401.0,STARLINK-5076,PAYLOAD,2024-07-30 10:43:21,14.98333144,0.0002804,69.9998,105.043,268.1373,91.9465,0.00018009,2.057e-05,0.0,0 STARLINK-5076,1 55401U 23014L   24212.44678082  .00002057  00000-0  18009-3 0  9990,2 55401  69.9998 105.0430 0002804 268.1373  91.9465 14.98333144 84099,6950.183,96.107,573.997,570.099,0.0
